ALOS-4 (DAICHI-4)       
1 60182U 24123A   24250.83003630  .00008403  00000+0  11306-2 0  9992
2 60182  97.9216 346.3174 0001499  95.9422 264.1961 14.79478540 10015
